CCSDS_OMM_VERS = 2.0
CREATION_DATE  = 
ORIGINATOR     = 

OBJECT_NAME    = COSMOS 1933
OBJECT_ID      = 1988-020A
CENTER_NAME    = EARTH
REF_FRAME      = TEME
TIME_SYSTEM    = UTC
MEAN_ELEMENT_THEORY = SGP/SGP4

EPOCH          = 2026-02-08T02:58:29.798400
MEAN_MOTION    = 15.17730006
ECCENTRICITY   = .00032159
INCLINATION    = 82.5122
RA_OF_ASC_NODE = 280.1637
ARG_OF_PERICENTER = 323.0407
MEAN_ANOMALY   = 37.0604

EPHEMERIS_TYPE = 0
CLASSIFICATION_TYPE = U
NORAD_CAT_ID   = 18958
ELEMENT_SET_NO = 999
REV_AT_EPOCH   = 4574
BSTAR          = .20946837E-3
MEAN_MOTION_DOT = .4255E-4
MEAN_MOTION_DDOT = 0

CCSDS_OMM_VERS = 2.0
CREATION_DATE  = 
ORIGINATOR     = 

OBJECT_NAME    = SL-3 R/B
OBJECT_ID      = 1988-032B
CENTER_NAME    = EARTH
REF_FRAME      = TEME
TIME_SYSTEM    = UTC
MEAN_ELEMENT_THEORY = SGP/SGP4

EPOCH          = 2026-02-08T11:57:02.780640
MEAN_MOTION    = 15.19529392
ECCENTRICITY   = .0025478
INCLINATION    = 97.5154
RA_OF_ASC_NODE = 22.8713
ARG_OF_PERICENTER = 340.0568
MEAN_ANOMALY   = 19.9668

EPHEMERIS_TYPE = 0
CLASSIFICATION_TYPE = U
NORAD_CAT_ID   = 19046
ELEMENT_SET_NO = 999
REV_AT_EPOCH   = 4767
BSTAR          = .34396E-3
MEAN_MOTION_DOT = .7301E-4
MEAN_MOTION_DDOT = 0

CCSDS_OMM_VERS = 2.0
CREATION_DATE  = 
ORIGINATOR     = 

OBJECT_NAME    = SL-16 R/B
OBJECT_ID      = 1988-039B
CENTER_NAME    = EARTH
REF_FRAME      = TEME
TIME_SYSTEM    = UTC
MEAN_ELEMENT_THEORY = SGP/SGP4

EPOCH          = 2026-02-08T09:15:46.269216
MEAN_MOTION    = 14.19611536
ECCENTRICITY   = .0020954
INCLINATION    = 71.0150
RA_OF_ASC_NODE = 130.5132
ARG_OF_PERICENTER = 19.0646
MEAN_ANOMALY   = 341.1258

EPHEMERIS_TYPE = 0
CLASSIFICATION_TYPE = U
NORAD_CAT_ID   = 19120
ELEMENT_SET_NO = 999
REV_AT_EPOCH   = 95422
BSTAR          = -.2695E-4
MEAN_MOTION_DOT = -.105E-5
MEAN_MOTION_DDOT = 0

CCSDS_OMM_VERS = 2.0
CREATION_DATE  = 
ORIGINATOR     = 

OBJECT_NAME    = COSMOS 1953
OBJECT_ID      = 1988-050A
CENTER_NAME    = EARTH
REF_FRAME      = TEME
TIME_SYSTEM    = UTC
MEAN_ELEMENT_THEORY = SGP/SGP4

EPOCH          = 2026-02-08T11:42:56.985120
MEAN_MOTION    = 15.27931111
ECCENTRICITY   = .0010594
INCLINATION    = 82.5093
RA_OF_ASC_NODE = 187.5962
ARG_OF_PERICENTER = 223.3847
MEAN_ANOMALY   = 136.6559

EPHEMERIS_TYPE = 0
CLASSIFICATION_TYPE = U
NORAD_CAT_ID   = 19210
ELEMENT_SET_NO = 999
REV_AT_EPOCH   = 3332
BSTAR          = .43649E-3
MEAN_MOTION_DOT = .1195E-3
MEAN_MOTION_DDOT = 0

CCSDS_OMM_VERS = 2.0
CREATION_DATE  = 
ORIGINATOR     = 

OBJECT_NAME    = SL-8 R/B
OBJECT_ID      = 1988-053B
CENTER_NAME    = EARTH
REF_FRAME      = TEME
TIME_SYSTEM    = UTC
MEAN_ELEMENT_THEORY = SGP/SGP4

EPOCH          = 2026-02-08T12:39:39.153600
MEAN_MOTION    = 14.38898145
ECCENTRICITY   = .0020392
INCLINATION    = 74.0480
RA_OF_ASC_NODE = 166.2140
ARG_OF_PERICENTER = 350.9142
MEAN_ANOMALY   = 81.2184

EPHEMERIS_TYPE = 0
CLASSIFICATION_TYPE = U
NORAD_CAT_ID   = 19257
ELEMENT_SET_NO = 999
REV_AT_EPOCH   = 97240
BSTAR          = .11171E-3
MEAN_MOTION_DOT = .318E-5
MEAN_MOTION_DDOT = 0

CCSDS_OMM_VERS = 2.0
CREATION_DATE  = 
ORIGINATOR     = 

OBJECT_NAME    = COSMOS 1975
OBJECT_ID      = 1988-093A
CENTER_NAME    = EARTH
REF_FRAME      = TEME
TIME_SYSTEM    = UTC
MEAN_ELEMENT_THEORY = SGP/SGP4

EPOCH          = 2026-02-08T09:11:28.341888
MEAN_MOTION    = 15.27549089
ECCENTRICITY   = .0010286
INCLINATION    = 82.5220
RA_OF_ASC_NODE = 147.0836
ARG_OF_PERICENTER = 273.5872
MEAN_ANOMALY   = 86.4191

EPHEMERIS_TYPE = 0
CLASSIFICATION_TYPE = U
NORAD_CAT_ID   = 19573
ELEMENT_SET_NO = 999
REV_AT_EPOCH   = 1493
BSTAR          = .37499E-3
MEAN_MOTION_DOT = .1015E-3
MEAN_MOTION_DDOT = 0

CCSDS_OMM_VERS = 2.0
CREATION_DATE  = 
ORIGINATOR     = 

OBJECT_NAME    = SL-14 R/B
OBJECT_ID      = 1988-093B
CENTER_NAME    = EARTH
REF_FRAME      = TEME
TIME_SYSTEM    = UTC
MEAN_ELEMENT_THEORY = SGP/SGP4

EPOCH          = 2026-02-08T12:11:52.285920
MEAN_MOTION    = 14.85623612
ECCENTRICITY   = .0021882
INCLINATION    = 82.5281
RA_OF_ASC_NODE = 69.4455
ARG_OF_PERICENTER = 131.8793
MEAN_ANOMALY   = 341.4236

EPHEMERIS_TYPE = 0
CLASSIFICATION_TYPE = U
NORAD_CAT_ID   = 19574
ELEMENT_SET_NO = 999
REV_AT_EPOCH   = 99670
BSTAR          = .57421E-4
MEAN_MOTION_DOT = .524E-5
MEAN_MOTION_DDOT = 0

CCSDS_OMM_VERS = 2.0
CREATION_DATE  = 
ORIGINATOR     = 

OBJECT_NAME    = SL-16 R/B
OBJECT_ID      = 1988-102B
CENTER_NAME    = EARTH
REF_FRAME      = TEME
TIME_SYSTEM    = UTC
MEAN_ELEMENT_THEORY = SGP/SGP4

EPOCH          = 2026-02-08T12:29:54.027744
MEAN_MOTION    = 14.16147057
ECCENTRICITY   = .0012453
INCLINATION    = 70.9972
RA_OF_ASC_NODE = 212.8670
ARG_OF_PERICENTER = 49.7800
MEAN_ANOMALY   = 310.4410

EPHEMERIS_TYPE = 0
CLASSIFICATION_TYPE = U
NORAD_CAT_ID   = 19650
ELEMENT_SET_NO = 999
REV_AT_EPOCH   = 92276
BSTAR          = .13354E-3
MEAN_MOTION_DOT = .217E-5
MEAN_MOTION_DDOT = 0

CCSDS_OMM_VERS = 2.0
CREATION_DATE  = 
ORIGINATOR     = 

OBJECT_NAME    = INTERCOSMOS 24
OBJECT_ID      = 1989-080A
CENTER_NAME    = EARTH
REF_FRAME      = TEME
TIME_SYSTEM    = UTC
MEAN_ELEMENT_THEORY = SGP/SGP4

EPOCH          = 2026-02-08T08:02:13.140384
MEAN_MOTION    = 12.59517831
ECCENTRICITY   = .1188082
INCLINATION    = 82.6068
RA_OF_ASC_NODE = 123.5107
ARG_OF_PERICENTER = 0.9877
MEAN_ANOMALY   = 359.3184

EPHEMERIS_TYPE = 0
CLASSIFICATION_TYPE = U
NORAD_CAT_ID   = 20261
ELEMENT_SET_NO = 999
REV_AT_EPOCH   = 66310
BSTAR          = .18494E-3
MEAN_MOTION_DOT = .639E-5
MEAN_MOTION_DDOT = 0

CCSDS_OMM_VERS = 2.0
CREATION_DATE  = 
ORIGINATOR     = 

OBJECT_NAME    = SL-14 R/B
OBJECT_ID      = 1989-080C
CENTER_NAME    = EARTH
REF_FRAME      = TEME
TIME_SYSTEM    = UTC
MEAN_ELEMENT_THEORY = SGP/SGP4

EPOCH          = 2026-02-08T06:27:46.789920
MEAN_MOTION    = 12.50458047
ECCENTRICITY   = .1229461
INCLINATION    = 82.5944
RA_OF_ASC_NODE = 192.0726
ARG_OF_PERICENTER = 252.0273
MEAN_ANOMALY   = 94.3281

EPHEMERIS_TYPE = 0
CLASSIFICATION_TYPE = U
NORAD_CAT_ID   = 20262
ELEMENT_SET_NO = 999
REV_AT_EPOCH   = 65647
BSTAR          = .1533E-3
MEAN_MOTION_DOT = .505E-5
MEAN_MOTION_DDOT = 0

CCSDS_OMM_VERS = 2.0
CREATION_DATE  = 
ORIGINATOR     = 

OBJECT_NAME    = DELTA 1 R/B
OBJECT_ID      = 1989-089B
CENTER_NAME    = EARTH
REF_FRAME      = TEME
TIME_SYSTEM    = UTC
MEAN_ELEMENT_THEORY = SGP/SGP4

EPOCH          = 2026-02-08T12:18:08.946720
MEAN_MOTION    = 14.50638461
ECCENTRICITY   = .0068211
INCLINATION    = 97.0726
RA_OF_ASC_NODE = 251.5878
ARG_OF_PERICENTER = 213.9411
MEAN_ANOMALY   = 145.7414

EPHEMERIS_TYPE = 0
CLASSIFICATION_TYPE = U
NORAD_CAT_ID   = 20323
ELEMENT_SET_NO = 999
REV_AT_EPOCH   = 89150
BSTAR          = .11966E-3
MEAN_MOTION_DOT = .448E-5
MEAN_MOTION_DDOT = 0

CCSDS_OMM_VERS = 2.0
CREATION_DATE  = 
ORIGINATOR     = 

OBJECT_NAME    = ARIANE 40 R/B
OBJECT_ID      = 1990-005H
CENTER_NAME    = EARTH
REF_FRAME      = TEME
TIME_SYSTEM    = UTC
MEAN_ELEMENT_THEORY = SGP/SGP4

EPOCH          = 2026-02-08T03:22:30.767232
MEAN_MOTION    = 14.39850492
ECCENTRICITY   = .00089979
INCLINATION    = 98.3149
RA_OF_ASC_NODE = 100.6729
ARG_OF_PERICENTER = 296.2774
MEAN_ANOMALY   = 63.7490

EPHEMERIS_TYPE = 0
CLASSIFICATION_TYPE = U
NORAD_CAT_ID   = 20443
ELEMENT_SET_NO = 999
REV_AT_EPOCH   = 88855
BSTAR          = .11669603E-3
MEAN_MOTION_DOT = .324E-5
MEAN_MOTION_DDOT = 0

