COSMOS 1933             
1 18958U 88020A   26039.12395600  .00004255  00000+0  20947-3 0  9995
2 18958  82.5122 280.1637 0003215 323.0407  37.0604 15.17730006 45740
SL-3 R/B                
1 19046U 88032B   26039.49794885  .00007301  00000+0  34396-3 0  9993
2 19046  97.5154  22.8713 0025478 340.0568  19.9668 15.19529392 47677
SL-16 R/B               
1 19120U 88039B   26039.38595219 -.00000105  00000+0 -26950-4 0  9996
2 19120  71.0150 130.5132 0020954  19.0646 341.1258 14.19611536954223
COSMOS 1953             
1 19210U 88050A   26039.48815955  .00011950  00000+0  43649-3 0  9993
2 19210  82.5093 187.5962 0010594 223.3847 136.6559 15.27931111 33325
SL-8 R/B                
1 19257U 88053B   26039.52753650  .00000318  00000+0  11171-3 0  9996
2 19257  74.0480 166.2140 0020392 350.9142  81.2184 14.38898145972406
COSMOS 1975             
1 19573U 88093A   26039.38296692  .00010150  00000+0  37499-3 0  9999
2 19573  82.5220 147.0836 0010286 273.5872  86.4191 15.27549089 14932
SL-14 R/B               
1 19574U 88093B   26039.50824405  .00000524  00000+0  57421-4 0  9995
2 19574  82.5281  69.4455 0021882 131.8793 341.4236 14.85623612996702
SL-16 R/B               
1 19650U 88102B   26039.52076421  .00000217  00000+0  13354-3 0  9995
2 19650  70.9972 212.8670 0012453  49.7800 310.4410 14.16147057922761
INTERCOSMOS 24          
1 20261U 89080A   26039.33487431  .00000639  00000+0  18494-3 0  9995
2 20261  82.6068 123.5107 1188082   0.9877 359.3184 12.59517831663102
SL-14 R/B               
1 20262U 89080C   26039.26929155  .00000505  00000+0  15330-3 0  9990
2 20262  82.5944 192.0726 1229461 252.0273  94.3281 12.50458047656470
DELTA 1 R/B             
1 20323U 89089B   26039.51260355  .00000448  00000+0  11966-3 0  9992
2 20323  97.0726 251.5878 0068211 213.9411 145.7414 14.50638461891505
ARIANE 40 R/B           
1 20443U 90005H   26039.14063388  .00000324  00000+0  11670-3 0  9996
2 20443  98.3149 100.6729 0008997 296.2774  63.7490 14.39850492888552
